[{"OBJECT_NAME":"STARLINK-1954","OBJECT_ID":"2021-009H","EPOCH":"2026-03-09T23:20:25.352160","MEAN_MOTION":15.30849174,"ECCENTRICITY":0.00046184,"INCLINATION":53.0574,"RA_OF_ASC_NODE":8.8654,"ARG_OF_PERICENTER":103.3293,"MEAN_ANOMALY":256.8222,"EPHEMERIS_TYPE":0,"CLASSIFICATION_TYPE":"U","NORAD_CAT_ID":47555,"ELEMENT_SET_NO":999,"REV_AT_EPOCH":28100,"BSTAR":0.0022371791,"MEAN_MOTION_DOT":0.00067883,"MEAN_MOTION_DDOT":0},{"OBJECT_NAME":"STARLINK-35228","OBJECT_ID":"2025-198AB","EPOCH":"2026-03-09T19:51:10.979424","MEAN_MOTION":15.30196191,"ECCENTRICITY":0.00010626,"INCLINATION":53.1587,"RA_OF_ASC_NODE":270.1762,"ARG_OF_PERICENTER":85.2428,"MEAN_ANOMALY":274.8694,"EPHEMERIS_TYPE":0,"CLASSIFICATION_TYPE":"U","NORAD_CAT_ID":65517,"ELEMENT_SET_NO":999,"REV_AT_EPOCH":2864,"BSTAR":0.00070421646,"MEAN_MOTION_DOT":0.00020553,"MEAN_MOTION_DDOT":0}]
